XRISM                   
1 57800U 23137A   26087.59191216  .00006351  00000+0  35792-3 0  9996
2 57800  31.0016 161.3818 0007952 229.4111 130.5836 15.11713690140650
ACS3                    
1 59588U 24077B   26087.57313832  .00022962  00000+0  18062-1 0  9998
2 59588  97.1966  24.4398 0072461  33.5084 327.0633 13.90460123 96826
SZ-21 MODULE            
1 66515U 25246C   26087.27448309  .00043062  00000+0  34891-3 0  9994
2 66515  41.4743  88.8326 0001568 210.3682 149.7069 15.69967006 20990
