CCSDS_OMM_VERS = 2.0
CREATION_DATE  = 
ORIGINATOR     = 

OBJECT_NAME    = XRISM
OBJECT_ID      = 2023-137A
CENTER_NAME    = EARTH
REF_FRAME      = TEME
TIME_SYSTEM    = UTC
MEAN_ELEMENT_THEORY = SGP/SGP4

EPOCH          = 2026-03-28T14:12:21.210624
MEAN_MOTION    = 15.11713690
ECCENTRICITY   = .0007952
INCLINATION    = 31.0016
RA_OF_ASC_NODE = 161.3818
ARG_OF_PERICENTER = 229.4111
MEAN_ANOMALY   = 130.5836

EPHEMERIS_TYPE = 0
CLASSIFICATION_TYPE = U
NORAD_CAT_ID   = 57800
ELEMENT_SET_NO = 999
REV_AT_EPOCH   = 14065
BSTAR          = .35792227E-3
MEAN_MOTION_DOT = .6351E-4
MEAN_MOTION_DDOT = 0

CCSDS_OMM_VERS = 2.0
CREATION_DATE  = 
ORIGINATOR     = 

OBJECT_NAME    = ACS3
OBJECT_ID      = 2024-077B
CENTER_NAME    = EARTH
REF_FRAME      = TEME
TIME_SYSTEM    = UTC
MEAN_ELEMENT_THEORY = SGP/SGP4

EPOCH          = 2026-03-28T13:45:19.150848
MEAN_MOTION    = 13.90460123
ECCENTRICITY   = .00724612
INCLINATION    = 97.1966
RA_OF_ASC_NODE = 24.4398
ARG_OF_PERICENTER = 33.5084
MEAN_ANOMALY   = 327.0633

EPHEMERIS_TYPE = 0
CLASSIFICATION_TYPE = U
NORAD_CAT_ID   = 59588
ELEMENT_SET_NO = 999
REV_AT_EPOCH   = 9682
BSTAR          = .18062015E-1
MEAN_MOTION_DOT = .22962E-3
MEAN_MOTION_DDOT = 0

CCSDS_OMM_VERS = 2.0
CREATION_DATE  = 
ORIGINATOR     = 

OBJECT_NAME    = SZ-21 MODULE
OBJECT_ID      = 2025-246C
CENTER_NAME    = EARTH
REF_FRAME      = TEME
TIME_SYSTEM    = UTC
MEAN_ELEMENT_THEORY = SGP/SGP4

EPOCH          = 2026-03-28T06:35:15.338976
MEAN_MOTION    = 15.69967006
ECCENTRICITY   = .0001568
INCLINATION    = 41.4743
RA_OF_ASC_NODE = 88.8326
ARG_OF_PERICENTER = 210.3682
MEAN_ANOMALY   = 149.7069

EPHEMERIS_TYPE = 0
CLASSIFICATION_TYPE = U
NORAD_CAT_ID   = 66515
ELEMENT_SET_NO = 999
REV_AT_EPOCH   = 2099
BSTAR          = .34891E-3
MEAN_MOTION_DOT = .43062E-3
MEAN_MOTION_DDOT = 0

